EUTELSAT 7A             
1 28187U 04008A   25311.28112657  .00000109  00000+0  00000+0 0  9990
2 28187   5.2655  74.6473 0001389 180.2344 113.8848  1.00268810 79123
EUTELSAT 174A           
1 28924U 05052A   25311.21019628  .00000016  00000+0  00000+0 0  9993
2 28924   3.6554  79.2654 0006670 150.3177  66.7683  1.00271398 50109
EUTELSAT HOTBIRD 13B    
1 29270U 06032A   25311.28378271  .00000162  00000+0  00000+0 0  9998
2 29270   1.0856  84.6515 0003903 142.6676 314.6848  1.00272621 45080
EUTELSAT HOTBIRD 13C    
1 33459U 08065A   25302.32591028 -.00000088  00000+0  00000+0 0  9990
2 33459   2.3523  81.9104 0006142 154.2398 266.6285  1.00271861 45032
EUTELSAT 36B            
1 36101U 09065A   25311.18575616  .00000119  00000+0  00000+0 0  9991
2 36101   0.0464 353.1998 0006356 236.9034 293.9381  1.00268744 58484
EUTELSAT KA-SAT 9A      
1 37258U 10069A   25309.32241992  .00000074  00000+0  00000+0 0  9991
2 37258   0.0601 317.2283 0002361 221.6462 351.0837  1.00272648 41760
EUTELSAT 7 WEST A       
1 37816U 11051A   25311.20563025 -.00000053  00000+0  00000+0 0  9995
2 37816   0.0839  39.5539 0006584 176.9491 256.9025  1.00271590 51652
EUTELSAT 16A            
1 37836U 11057A   25311.25023650  .00000110  00000+0  00000+0 0  9996
2 37836   0.0634 353.7140 0005638 237.8091 281.2978  1.00269744  5103
